OBJECT_NAME,OBJECT_ID,EPOCH,MEAN_MOTION,ECCENTRICITY,INCLINATION,RA_OF_ASC_NODE,ARG_OF_PERICENTER,MEAN_ANOMALY,EPHEMERIS_TYPE,CLASSIFICATION_TYPE,NORAD_CAT_ID,ELEMENT_SET_NO,REV_AT_EPOCH,BSTAR,MEAN_MOTION_DOT,MEAN_MOTION_DDOT
STARLINK-34965,2025-175N,2026-05-12T05:48:12.574080,15.05658620,.00024597,97.5029,5.1442,87.5901,272.5608,0,U,65186,999,4220,.1595332E-3,.2244E-4,0
STARLINK-34915,2025-175P,2026-05-12T04:16:29.563680,15.05649239,.00023657,97.5059,5.0772,88.9694,271.1804,0,U,65187,999,4219,-.60554495E-4,-.933E-5,0
STARLINK-34972,2025-175Q,2026-05-12T05:44:13.294464,15.05658642,.00026422,97.5022,5.1484,80.5593,279.5932,0,U,65188,999,4217,.14755389E-3,.2071E-4,0
STARLINK-34866,2025-175R,2026-05-12T05:40:14.472768,15.05655059,.00028716,97.5029,5.1523,86.2831,273.8725,0,U,65189,999,4220,.28896704E-3,.4113E-4,0
STARLINK-34917,2025-175S,2026-05-12T06:00:02.999808,15.05683381,.00032121,97.5022,5.1732,85.2108,4.4446,0,U,65190,999,559,-.37280641E-2,-.53503E-3,0
STARLINK-34948,2025-175T,2026-05-12T05:32:15.945504,15.05652910,.00028669,97.5050,5.1526,86.7551,273.4004,0,U,65191,999,4220,.11468696E-3,.1596E-4,0
STARLINK-34955,2025-175U,2026-05-12T05:28:15.836448,15.05663412,.00027292,97.5026,5.1646,92.5115,267.6425,0,U,65192,999,4217,-.43850363E-3,-.6383E-4,0
STARLINK-34950,2025-175V,2026-05-12T05:24:17.521056,15.05676986,.00022207,97.5062,5.1687,91.1133,269.0349,0,U,65193,999,4217,-.11289061E-3,-.1689E-4,0
STARLINK-34926,2025-175W,2026-05-12T01:56:56.459328,15.05655653,.00016617,97.5073,5.0547,65.3525,294.7875,0,U,65194,999,4215,.17953272E-3,.2532E-4,0
STARLINK-34928,2025-175X,2026-05-12T05:12:19.734912,15.05653750,.00028956,97.5047,5.1788,96.7450,263.4107,0,U,65195,999,4220,.22804284E-4,.27E-5,0
STARLINK-34927,2025-175Y,2026-05-12T02:08:54.240288,15.05654849,.00028494,97.5062,5.0439,88.8304,271.3250,0,U,65196,999,4218,-.86117942E-4,-.1302E-4,0
STARLINK-34952,2025-175Z,2026-05-12T05:16:20.385696,15.05643440,.00029246,97.5040,5.1765,83.7096,276.4464,0,U,65197,999,4220,.96329831E-4,.1331E-4,0
STARLINK-34981,2025-176A,2026-05-11T13:06:59.090400,15.30197260,.00006175,53.1563,223.6285,63.7098,296.3966,0,U,65198,999,4270,.28671395E-3,.8141E-4,0
STARLINK-34821,2025-176B,2026-05-11T05:40:48.403776,15.34411207,.00013882,53.1608,221.7130,101.5965,258.5193,0,U,65199,999,4263,.65433551E-3,.21804E-3,0
STARLINK-34865,2025-176C,2026-05-12T06:20:26.925792,15.34386134,.00009006,53.1586,217.4611,97.6143,262.4962,0,U,65200,999,4285,.29813112E-3,.9705E-4,0
STARLINK-34843,2025-176D,2026-05-11T23:13:45.347808,15.34428836,.00007526,53.1595,218.4525,65.5546,294.5535,0,U,65201,999,4281,.77532476E-3,.25934E-3,0
STARLINK-34905,2025-176E,2026-05-12T05:31:57.428256,15.34383304,.00012134,53.1588,217.2485,97.4500,262.6640,0,U,65202,999,4285,.47389134E-3,.1566E-3,0
STARLINK-34914,2025-176F,2026-05-12T05:25:53.397408,15.34403995,.00012672,53.1594,217.2208,77.2949,282.8195,0,U,65203,999,4285,.25473325E-3,.8241E-4,0
STARLINK-34787,2025-176G,2026-05-12T05:04:41.160000,15.34401896,.00013967,53.1600,217.1273,83.2744,276.8418,0,U,65204,999,4285,.52750432E-3,.17489E-3,0
STARLINK-34796,2025-176H,2026-05-12T05:59:13.103808,15.34403965,.00012187,53.1584,217.3616,124.7457,235.3661,0,U,65205,999,4285,.44877213E-3,.14818E-3,0
STARLINK-34763,2025-176J,2026-05-12T06:00:02.999808,15.33523631,.00020273,53.1598,217.3096,95.3673,293.0071,0,U,65206,999,572,.27785249E-3,.8768E-4,0
STARLINK-34901,2025-176K,2026-05-11T15:43:46.443360,15.30199053,.00009819,53.1586,220.0535,88.0595,272.0518,0,U,65207,999,4276,.19252898E-3,.5347E-4,0
STARLINK-34841,2025-176L,2026-05-12T05:22:51.786336,15.34400704,.00012914,53.1600,217.2121,87.8043,272.3107,0,U,65208,999,4285,.40498599E-3,.13332E-3,0
STARLINK-34976,2025-176M,2026-05-12T05:50:07.922400,15.34395958,.00010553,53.1587,217.3216,91.1592,268.9531,0,U,65209,999,4285,.38076295E-3,.12508E-3,0
STARLINK-34941,2025-176N,2026-05-11T15:45:17.708544,15.30197861,.00010396,53.1589,220.0630,81.5731,278.5387,0,U,65210,999,4276,.157105E-3,.4296E-4,0
STARLINK-34847,2025-176P,2026-05-12T06:19:07.891392,15.30236898,.00008299,53.1577,217.4520,79.3243,280.7851,0,U,65211,999,4285,.64629775E-3,.18853E-3,0
STARLINK-34897,2025-176Q,2026-05-12T05:41:02.639904,15.34399056,.0001314,53.1588,217.2871,94.7120,265.4033,0,U,65212,999,4285,.37471076E-3,.12304E-3,0
STARLINK-34907,2025-176R,2026-05-12T06:00:02.999808,15.33582548,.0001387,53.1593,217.4784,85.9709,216.0974,0,U,65213,999,566,.96833489E-3,.31642E-3,0
STARLINK-34511,2025-176S,2026-05-12T06:08:18.562560,15.34403704,.00010487,53.1586,217.4062,89.4931,270.6191,0,U,65214,999,4279,.33329324E-3,.10902E-3,0
STARLINK-33913,2025-176T,2026-05-12T05:53:58.263072,15.34400969,.00008161,53.1598,219.4700,86.1605,273.9491,0,U,65215,999,4282,.36043687E-3,.11821E-3,0
