STARLINK-34965          
1 65186U 25175N   26132.24181220  .00002244  00000+0  15953-3 0  9997
2 65186  97.5029   5.1442 0002459  87.5901 272.5608 15.05658620 42202
STARLINK-34915          
1 65187U 25175P   26132.17811995 -.00000933  00000+0 -60554-4 0  9992
2 65187  97.5059   5.0772 0002365  88.9694 271.1804 15.05649239 42198
STARLINK-34972          
1 65188U 25175Q   26132.23904276  .00002071  00000+0  14755-3 0  9999
2 65188  97.5022   5.1484 0002642  80.5593 279.5932 15.05658642 42174
STARLINK-34866          
1 65189U 25175R   26132.23627862  .00004113  00000+0  28897-3 0  9994
2 65189  97.5029   5.1523 0002871  86.2831 273.8725 15.05655059 42208
STARLINK-34917          
1 65190U 25175S   26132.25003472 -.00053503  00000+0 -37281-2 0  9998
2 65190  97.5022   5.1732 0003212  85.2108   4.4446 15.05683381  5599
STARLINK-34948          
1 65191U 25175T   26132.23074011  .00001596  00000+0  11469-3 0  9998
2 65191  97.5050   5.1526 0002866  86.7551 273.4004 15.05652910 42205
STARLINK-34955          
1 65192U 25175U   26132.22796107 -.00006383  00000+0 -43850-3 0  9995
2 65192  97.5026   5.1646 0002729  92.5115 267.6425 15.05663412 42178
STARLINK-34950          
1 65193U 25175V   26132.22520279 -.00001689  00000+0 -11289-3 0  9996
2 65193  97.5062   5.1687 0002220  91.1133 269.0349 15.05676986 42176
STARLINK-34926          
1 65194U 25175W   26132.08120902  .00002532  00000+0  17953-3 0  9990
2 65194  97.5073   5.0547 0001661  65.3525 294.7875 15.05655653 42154
STARLINK-34928          
1 65195U 25175X   26132.21689508  .00000270  00000+0  22804-4 0  9997
2 65195  97.5047   5.1788 0002895  96.7450 263.4107 15.05653750 42202
STARLINK-34927          
1 65196U 25175Y   26132.08951667 -.00001302  00000+0 -86118-4 0  9998
2 65196  97.5062   5.0439 0002849  88.8304 271.3250 15.05654849 42185
STARLINK-34952          
1 65197U 25175Z   26132.21968039  .00001331  00000+0  96330-4 0  9992
2 65197  97.5040   5.1765 0002924  83.7096 276.4464 15.05643440 42202
STARLINK-34981          
1 65198U 25176A   26131.54651725  .00008141  00000+0  28671-3 0  9998
2 65198  53.1563 223.6285 0000617  63.7098 296.3966 15.30197260 42707
STARLINK-34821          
1 65199U 25176B   26131.23667134  .00021804  00000+0  65434-3 0  9995
2 65199  53.1608 221.7130 0001388 101.5965 258.5193 15.34411207 42634
STARLINK-34865          
1 65200U 25176C   26132.26420053  .00009705  00000+0  29813-3 0  9996
2 65200  53.1586 217.4611 0000900  97.6143 262.4962 15.34386134 42852
STARLINK-34843          
1 65201U 25176D   26131.96788597  .00025934  00000+0  77532-3 0  9996
2 65201  53.1595 218.4525 0000752  65.5546 294.5535 15.34428836 42818
STARLINK-34905          
1 65202U 25176E   26132.23052579  .00015660  00000+0  47389-3 0  9994
2 65202  53.1588 217.2485 0001213  97.4500 262.6640 15.34383304 42857
STARLINK-34914          
1 65203U 25176F   26132.22631247  .00008241  00000+0  25473-3 0  9996
2 65203  53.1594 217.2208 0001267  77.2949 282.8195 15.34403995 42858
STARLINK-34787          
1 65204U 25176G   26132.21158750  .00017489  00000+0  52750-3 0  9991
2 65204  53.1600 217.1273 0001396  83.2744 276.8418 15.34401896 42850
STARLINK-34796          
1 65205U 25176H   26132.24945722  .00014818  00000+0  44877-3 0  9992
2 65205  53.1584 217.3616 0001218 124.7457 235.3661 15.34403965 42859
STARLINK-34763          
1 65206U 25176J   26132.25003472  .00008768  00000+0  27785-3 0  9997
2 65206  53.1598 217.3096 0002027  95.3673 293.0071 15.33523631  5722
STARLINK-34901          
1 65207U 25176K   26131.65539865  .00005347  00000+0  19253-3 0  9992
2 65207  53.1586 220.0535 0000981  88.0595 272.0518 15.30199053 42760
STARLINK-34841          
1 65208U 25176L   26132.22421049  .00013332  00000+0  40499-3 0  9990
2 65208  53.1600 217.2121 0001291  87.8043 272.3107 15.34400704 42856
STARLINK-34976          
1 65209U 25176M   26132.24314725  .00012508  00000+0  38076-3 0  9997
2 65209  53.1587 217.3216 0001055  91.1592 268.9531 15.34395958 42858
STARLINK-34941          
1 65210U 25176N   26131.65645496  .00004296  00000+0  15711-3 0  9991
2 65210  53.1589 220.0630 0001039  81.5731 278.5387 15.30197861 42768
STARLINK-34847          
1 65211U 25176P   26132.26328578  .00018853  00000+0  64630-3 0  9997
2 65211  53.1577 217.4520 0000829  79.3243 280.7851 15.30236898 42858
STARLINK-34897          
1 65212U 25176Q   26132.23683611  .00012304  00000+0  37471-3 0  9995
2 65212  53.1588 217.2871 0001314  94.7120 265.4033 15.34399056 42855
STARLINK-34907          
1 65213U 25176R   26132.25003472  .00031642  00000+0  96833-3 0  9992
2 65213  53.1593 217.4784 0001387  85.9709 216.0974 15.33582548  5665
STARLINK-34511          
1 65214U 25176S   26132.25577040  .00010902  00000+0  33329-3 0  9997
2 65214  53.1586 217.4062 0001048  89.4931 270.6191 15.34403704 42796
STARLINK-33913          
1 65215U 25176T   26132.24581323  .00011821  00000+0  36044-3 0  9994
2 65215  53.1598 219.4700 0000816  86.1605 273.9491 15.34400969 42828
